[{"OBJECT_NAME":"CUBESX-HSE 3 (RS42S)","OBJECT_ID":"2023-091N","EPOCH":"2026-03-09T22:57:25.321248","MEAN_MOTION":15.286147,"ECCENTRICITY":0.00127191,"INCLINATION":97.5203,"RA_OF_ASC_NODE":133.4295,"ARG_OF_PERICENTER":86.5376,"MEAN_ANOMALY":273.7318,"EPHEMERIS_TYPE":0,"CLASSIFICATION_TYPE":"U","NORAD_CAT_ID":57178,"ELEMENT_SET_NO":999,"REV_AT_EPOCH":14925,"BSTAR":0.00059055694,"MEAN_MOTION_DOT":0.00016417,"MEAN_MOTION_DDOT":0},{"OBJECT_NAME":"STARLINK-31828","OBJECT_ID":"2024-091Q","EPOCH":"2026-03-09T07:11:00.014208","MEAN_MOTION":15.30193858,"ECCENTRICITY":0.00011321,"INCLINATION":53.1616,"RA_OF_ASC_NODE":28.7656,"ARG_OF_PERICENTER":92.1509,"MEAN_ANOMALY":267.9622,"EPHEMERIS_TYPE":0,"CLASSIFICATION_TYPE":"U","NORAD_CAT_ID":59767,"ELEMENT_SET_NO":999,"REV_AT_EPOCH":10294,"BSTAR":-6.845739e-6,"MEAN_MOTION_DOT":-5.62e-6,"MEAN_MOTION_DDOT":0}]
